[
    {
        "Altitude(m)": 704080.0652112925,
        "Argument of Periapsis(deg)": 0.005695060593313534,
        "Eccentricity": 0.0,
        "Inclination(deg)": 45.0,
        "Latitude(deg)": -4.162387406575412,
        "Longitude(deg)": -66.22072249972737,
        "Mean Anomaly(deg)": -174.2333916762596,
        "RAAN(deg)": 209.9946240292709,
        "Satellite Name": "Constellation 1 935",
        "Satellite Number": 935,
        "Semi-Major Axis(m)": 7083131.272910544,
        "Time(s)": 95
    },
    {
        "Altitude(m)": 704087.6273691489,
        "Argument of Periapsis(deg)": 0.00575500859955894,
        "Eccentricity": 0.0,
        "Inclination(deg)": 45.0,
        "Latitude(deg)": -4.205478988430311,
        "Longitude(deg)": -66.18175335879383,
        "Mean Anomaly(deg)": -174.1726905360097,
        "RAAN(deg)": 209.99456744010536,
        "Satellite Name": "Constellation 1 935",
        "Satellite Number": 935,
        "Semi-Major Axis(m)": 7083131.272910544,
        "Time(s)": 96
    },
    {
        "Altitude(m)": 704095.2091018121,
        "Argument of Periapsis(deg)": 0.005814956605804345,
        "Eccentricity": 0.0,
        "Inclination(deg)": 45.0,
        "Latitude(deg)": -4.248568059934999,
        "Longitude(deg)": -66.14277939833688,
        "Mean Anomaly(deg)": -174.1119893957598,
        "RAAN(deg)": 209.9945108509398,
        "Satellite Name": "Constellation 1 935",
        "Satellite Number": 935,
        "Semi-Major Axis(m)": 7083131.272910544,
        "Time(s)": 97
    },
    {
        "Altitude(m)": 704102.8103938168,
        "Argument of Periapsis(deg)": 0.00587490461204975,
        "Eccentricity": 0.0,
        "Inclination(deg)": 45.0,
        "Latitude(deg)": -4.291654595748665,
        "Longitude(deg)": -66.10380073767762,
        "Mean Anomaly(deg)": -174.05128825550986,
        "RAAN(deg)": 209.99445426177422,
        "Satellite Name": "Constellation 1 935",
        "Satellite Number": 935,
        "Semi-Major Axis(m)": 7083131.272910544,
        "Time(s)": 98
    },
    {
        "Altitude(m)": 704110.4312296173,
        "Argument of Periapsis(deg)": 0.005934852618295156,
        "Eccentricity": 0.0,
        "Inclination(deg)": 45.0,
        "Latitude(deg)": -4.334738570521425,
        "Longitude(deg)": -66.06481732802992,
        "Mean Anomaly(deg)": -173.99058711526,
        "RAAN(deg)": 209.99439767260867,
        "Satellite Name": "Constellation 1 935",
        "Satellite Number": 935,
        "Semi-Major Axis(m)": 7083131.272910544,
        "Time(s)": 99
    },
    {
        "Altitude(m)": 704118.0715935633,
        "Argument of Periapsis(deg)": 0.005994800624540561,
        "Eccentricity": 0.0,
        "Inclination(deg)": 45.0,
        "Latitude(deg)": -4.377819958894969,
        "Longitude(deg)": -66.02582912059735,
        "Mean Anomaly(deg)": -173.92988597501008,
        "RAAN(deg)": 209.99434108344306,
        "Satellite Name": "Constellation 1 935",
        "Satellite Number": 935,
        "Semi-Major Axis(m)": 7083131.272910544,
        "Time(s)": 100
    },
    {
        "Altitude(m)": 704125.7314699274,
        "Argument of Periapsis(deg)": 0.006054748630785968,
        "Eccentricity": 0.0,
        "Inclination(deg)": 45.0,
        "Latitude(deg)": -4.42089873550194,
        "Longitude(deg)": -65.98683606657316,
        "Mean Anomaly(deg)": -173.8691848347602,
        "RAAN(deg)": 209.9942844942775,
        "Satellite Name": "Constellation 1 935",
        "Satellite Number": 935,
        "Semi-Major Axis(m)": 7083131.272910544,
        "Time(s)": 101
    },
    {
        "Altitude(m)": 704133.4108428913,
        "Argument of Periapsis(deg)": 0.006114696637031373,
        "Eccentricity": 0.0,
        "Inclination(deg)": 45.0,
        "Latitude(deg)": -4.463974874966088,
        "Longitude(deg)": -65.94783811714024,
        "Mean Anomaly(deg)": -173.80848369451036,
        "RAAN(deg)": 209.99422790511193,
        "Satellite Name": "Constellation 1 935",
        "Satellite Number": 935,
        "Semi-Major Axis(m)": 7083131.272910544,
        "Time(s)": 102
    },
    {
        "Altitude(m)": 704141.1096965311,
        "Argument of Periapsis(deg)": 0.006174644643276778,
        "Eccentricity": 0.0,
        "Inclination(deg)": 45.0,
        "Latitude(deg)": -4.507048351902213,
        "Longitude(deg)": -65.90883522347073,
        "Mean Anomaly(deg)": -173.74778255426037,
        "RAAN(deg)": 209.99417131594637,
        "Satellite Name": "Constellation 1 935",
        "Satellite Number": 935,
        "Semi-Major Axis(m)": 7083131.272910544,
        "Time(s)": 103
    },
    {
        "Altitude(m)": 704148.8280148477,
        "Argument of Periapsis(deg)": 0.006234592649522184,
        "Eccentricity": 0.0,
        "Inclination(deg)": 45.0,
        "Latitude(deg)": -4.550119140915767,
        "Longitude(deg)": -65.86982750482358,
        "Mean Anomaly(deg)": -173.6870814140105,
        "RAAN(deg)": 209.99411472678082,
        "Satellite Name": "Constellation 1 935",
        "Satellite Number": 935,
        "Semi-Major Axis(m)": 7083131.272910544,
        "Time(s)": 104
    },
    {
        "Altitude(m)": 704156.5657817479,
        "Argument of Periapsis(deg)": 0.00629454065576759,
        "Eccentricity": 0.0,
        "Inclination(deg)": 45.0,
        "Latitude(deg)": -4.593187216603198,
        "Longitude(deg)": -65.83081457615529,
        "Mean Anomaly(deg)": -173.62638027376056,
        "RAAN(deg)": 209.9940581376152,
        "Satellite Name": "Constellation 1 935",
        "Satellite Number": 935,
        "Semi-Major Axis(m)": 7083131.272910544,
        "Time(s)": 105
    },
    {
        "Altitude(m)": 704164.322981046,
        "Argument of Periapsis(deg)": 0.006354488662012995,
        "Eccentricity": 0.0,
        "Inclination(deg)": 45.0,
        "Latitude(deg)": -4.636252553551372,
        "Longitude(deg)": -65.79179655670315,
        "Mean Anomaly(deg)": -173.56567913351068,
        "RAAN(deg)": 209.99400154844966,
        "Satellite Name": "Constellation 1 935",
        "Satellite Number": 935,
        "Semi-Major Axis(m)": 7083131.272910544,
        "Time(s)": 106
    },
    {
        "Altitude(m)": 704172.0995964691,
        "Argument of Periapsis(deg)": 0.006414436668258401,
        "Eccentricity": 0.0,
        "Inclination(deg)": 45.0,
        "Latitude(deg)": -4.679315126338182,
        "Longitude(deg)": -65.75277339759597,
        "Mean Anomaly(deg)": -173.50497799326075,
        "RAAN(deg)": 209.99394495928408,
        "Satellite Name": "Constellation 1 935",
        "Satellite Number": 935,
        "Semi-Major Axis(m)": 7083131.272910544,
        "Time(s)": 107
    },
    {
        "Altitude(m)": 704179.8956116484,
        "Argument of Periapsis(deg)": 0.0064743846745038075,
        "Eccentricity": 0.0,
        "Inclination(deg)": 45.0,
        "Latitude(deg)": -4.722374909531547,
        "Longitude(deg)": -65.71374504995201,
        "Mean Anomaly(deg)": -173.4442768530109,
        "RAAN(deg)": 209.99388837011853,
        "Satellite Name": "Constellation 1 935",
        "Satellite Number": 935,
        "Semi-Major Axis(m)": 7083131.272910544,
        "Time(s)": 108
    },
    {
        "Altitude(m)": 704187.7110101256,
        "Argument of Periapsis(deg)": 0.0065343326807492125,
        "Eccentricity": 0.0,
        "Inclination(deg)": 45.0,
        "Latitude(deg)": -4.765431877690128,
        "Longitude(deg)": -65.67471146487789,
        "Mean Anomaly(deg)": -173.383575712761,
        "RAAN(deg)": 209.99383178095292,
        "Satellite Name": "Constellation 1 935",
        "Satellite Number": 935,
        "Semi-Major Axis(m)": 7083131.272910544,
        "Time(s)": 109
    },
    {
        "Altitude(m)": 704195.5457753672,
        "Argument of Periapsis(deg)": 0.0065942806869946176,
        "Eccentricity": 0.0,
        "Inclination(deg)": 45.0,
        "Latitude(deg)": -4.8084860053628296,
        "Longitude(deg)": -65.63567259346911,
        "Mean Anomaly(deg)": -173.3228745725111,
        "RAAN(deg)": 209.99377519178736,
        "Satellite Name": "Constellation 1 935",
        "Satellite Number": 935,
        "Semi-Major Axis(m)": 7083131.272910544,
        "Time(s)": 110
    },
    {
        "Altitude(m)": 704203.399890727,
        "Argument of Periapsis(deg)": 0.006654228693240024,
        "Eccentricity": 0.0,
        "Inclination(deg)": 45.0,
        "Latitude(deg)": -4.851537267088711,
        "Longitude(deg)": -65.59662855490707,
        "Mean Anomaly(deg)": -173.26217343226116,
        "RAAN(deg)": 209.99371860262178,
        "Satellite Name": "Constellation 1 935",
        "Satellite Number": 935,
        "Semi-Major Axis(m)": 7083131.272910544,
        "Time(s)": 111
    },
    {
        "Altitude(m)": 704211.2733394852,
        "Argument of Periapsis(deg)": 0.006714176699485429,
        "Eccentricity": 0.0,
        "Inclination(deg)": 45.0,
        "Latitude(deg)": -4.894585637396851,
        "Longitude(deg)": -65.55757896407023,
        "Mean Anomaly(deg)": -173.20147229201135,
        "RAAN(deg)": 209.99366201345623,
        "Satellite Name": "Constellation 1 935",
        "Satellite Number": 935,
        "Semi-Major Axis(m)": 7083131.272910544,
        "Time(s)": 112
    },
    {
        "Altitude(m)": 704219.1661048215,
        "Argument of Periapsis(deg)": 0.006774124705730835,
        "Eccentricity": 0.0,
        "Inclination(deg)": 45.0,
        "Latitude(deg)": -4.93763109080666,
        "Longitude(deg)": -65.51852394011667,
        "Mean Anomaly(deg)": -173.14077115176136,
        "RAAN(deg)": 209.99360542429068,
        "Satellite Name": "Constellation 1 935",
        "Satellite Number": 935,
        "Semi-Major Axis(m)": 7083131.272910544,
        "Time(s)": 113
    }
]